NORAD_CAT_ID,OBJECT_NAME,OBJECT_TYPE,EPOCH,MEAN_MOTION,ECCENTRICITY,INCLINATION,RA_OF_ASC_NODE,ARG_OF_PERICENTER,MEAN_ANOMALY,BSTAR,MEAN_MOTION_DOT,MEAN_MOTION_DDOT,TLE_LINE0,TLE_LINE1,TLE_LINE2,SEMIMAJOR_AXIS,PERIOD,APOGEE,PERIGEE,DECAYED
52478.0,STARLINK-3825,PAYLOAD,2022-10-29 20:46:41,15.08868588,0.0001804,53.217,166.5502,69.0689,291.0496,0.00046407,7.111e-05,0.0,0 STARLINK-3825,1 52478U 22049AD  22302.86575701  .00007111  00000-0  46407-3 0  9995,2 52478  53.2170 166.5502 0001804  69.0689 291.0496 15.08868588 28280,6917.793000000002,95.436,540.906,538.41,0.0
52478.0,STARLINK-3825,PAYLOAD,2022-10-29 22:22:04,15.0887044,0.00018,53.2171,166.2531,67.6785,292.4398,0.00046183,7.076e-05,0.0,0 STARLINK-3825,1 52478U 22049AD  22302.93199540  .00007076  00000-0  46183-3 0  9997,2 52478  53.2171 166.2531 0001800  67.6785 292.4398 15.08870440 27215,6917.7869999999975,95.436,540.898,538.4069999999998,0.0
52478.0,STARLINK-3825,PAYLOAD,2022-10-30 01:32:50,15.08874542,0.0001742,53.217,165.6579,69.8231,290.2948,0.00049561,7.616e-05,0.0,0 STARLINK-3825,1 52478U 22049AD  22303.06447154  .00007616  00000-0  49561-3 0  9992,2 52478  53.2170 165.6579 0001742  69.8231 290.2948 15.08874542 28310,6917.775,95.435,540.845,538.435,0.0
52478.0,STARLINK-3825,PAYLOAD,2022-10-30 23:48:13,15.08850203,0.0001623,53.2168,161.4952,64.5843,295.5317,-8.4202e-05,-1.628e-05,0.0,0 STARLINK-3825,1 52478U 22049AD  22303.99182752 -.00001628  00000-0 -84202-4 0  9995,2 52478  53.2168 161.4952 0001623  64.5843 295.5317 15.08850203 28456,6917.849,95.437,540.837,538.591,0.0
52478.0,STARLINK-3825,PAYLOAD,2022-10-31 20:28:14,15.08846996,0.0001771,53.2172,157.6292,62.1391,297.978,7.4288e-05,8.95e-06,0.0,0 STARLINK-3825,1 52478U 22049AD  22304.85294733  .00000895  00000-0  74288-4 0  9990,2 52478  53.2172 157.6292 0001771  62.1391 297.9780 15.08846996 27500,6917.859,95.437,540.9490000000002,538.499,0.0
52478.0,STARLINK-3825,PAYLOAD,2022-11-01 07:35:56,15.08834982,0.0001575,53.2169,155.5485,62.5202,297.595,-0.00016033,-2.838e-05,0.0,0 STARLINK-3825,1 52478U 22049AD  22305.31662985 -.00002838  00000-0 -16033-3 0  9994,2 52478  53.2169 155.5485 0001575  62.5202 297.5950 15.08834982 28658,6917.896,95.438,540.85,538.6709999999998,0.0
52478.0,STARLINK-3825,PAYLOAD,2022-11-02 01:05:10,15.08852518,0.0001686,53.2181,152.2775,63.1896,296.9269,-0.00012293,-2.245e-05,0.0,0 STARLINK-3825,1 52478U 22049AD  22306.04526440 -.00002245  00000-0 -12293-3 0  9996,2 52478  53.2181 152.2775 0001686  63.1896 296.9269 15.08852518 27680,6917.842,95.437,540.873,538.5409999999998,0.0
52478.0,STARLINK-3825,PAYLOAD,2022-11-02 07:26:43,15.08843623,0.0002118,53.218,151.0885,56.851000000000006,303.2685,7.4763e-05,9.02e-06,0.0,0 STARLINK-3825,1 52478U 22049AD  22306.31023046  .00000902  00000-0  74763-4 0  9997,2 52478  53.2180 151.0885 0002118  56.8510 303.2685 15.08843623 28807,6917.869000000002,95.437,541.2,538.269,0.0
52478.0,STARLINK-3825,PAYLOAD,2022-11-02 20:09:49,15.08835992,0.0001668,53.217,148.7094,66.1096,294.0071,0.00023035,3.3799999999999995e-05,0.0,0 STARLINK-3825,1 52478U 22049AD  22306.84015626  .00003380  00000-0  23035-3 0  9998,2 52478  53.2170 148.7094 0001668  66.1096 294.0071 15.08835992 27808,6917.893,95.438,540.9119999999998,538.604,0.0
52478.0,STARLINK-3825,PAYLOAD,2022-11-03 00:55:58,15.08839413,0.0001764,53.2176,147.8169,60.5984,299.5184,0.00023885,3.515e-05,0.0,0 STARLINK-3825,1 52478U 22049AD  22307.03887588  .00003515  00000-0  23885-3 0  9997,2 52478  53.2176 147.8169 0001764  60.5984 299.5184 15.08839413 28918,6917.882,95.438,540.967,538.5269999999998,0.0
52478.0,STARLINK-3825,PAYLOAD,2022-11-03 18:25:12,15.08853511,0.0001589,53.2176,144.5457,65.7959,294.3199,0.00038707,5.88e-05,0.0,0 STARLINK-3825,1 52478U 22049AD  22307.76750911  .00005880  00000-0  38707-3 0  9992,2 52478  53.2176 144.5457 0001589  65.7959 294.3199 15.08853511 27942,6917.839,95.437,540.803,538.605,0.0
52478.0,STARLINK-3825,PAYLOAD,2022-11-03 20:00:35,15.0885438,0.0001450999999999,53.2174,144.2485,60.1723,299.9414,0.00041937,6.395e-05,0.0,0 STARLINK-3825,1 52478U 22049AD  22307.83374833  .00006395  00000-0  41937-3 0  9996,2 52478  53.2174 144.2485 0001451  60.1723 299.9414 15.08854380 29032,6917.8359999999975,95.437,540.705,538.698,0.0
52478.0,STARLINK-3825,PAYLOAD,2022-11-03 23:11:22,15.08846637,0.0001433,53.2161,143.6544,65.79,294.3242,0.0002345,3.447e-05,0.0,0 STARLINK-3825,1 52478U 22049AD  22307.96623057  .00003447  00000-0  23450-3 0  9990,2 52478  53.2161 143.6544 0001433  65.7900 294.3242 15.08846637 27970,6917.86,95.437,540.716,538.734,0.0
52478.0,STARLINK-3825,PAYLOAD,2022-11-04 13:29:50,15.08835144,0.0001693,53.2176,140.9778,69.3413,290.776,-8.6461e-06,-4.26e-06,0.0,0 STARLINK-3825,1 52478U 22049AD  22308.56239569 -.00000426  00000-0 -86461-5 0  9997,2 52478  53.2176 140.9778 0001693  69.3413 290.7760 15.08835144 29149,6917.895,95.438,540.931,538.589,0.0
52478.0,STARLINK-3825,PAYLOAD,2022-11-04 19:51:23,15.08835099,0.0001651,53.2173,139.7885,64.9307,295.1856,-8.4376e-07,-3.01e-06,0.0,0 STARLINK-3825,1 52478U 22049AD  22308.82735689 -.00000301  00000-0 -84376-6 0  9996,2 52478  53.2173 139.7885 0001651  64.9307 295.1856 15.08835099 28107,6917.895,95.438,540.903,538.618,0.0
52478.0,STARLINK-3825,PAYLOAD,2022-11-05 13:20:37,15.08843739,0.000159,53.2178,136.5171,64.1079,296.0077,2.4883e-06,-2.48e-06,0.0,0 STARLINK-3825,1 52478U 22049AD  22309.55599421 -.00000248  00000-0  24883-5 0  9994,2 52478  53.2178 136.5171 0001590  64.1079 296.0077 15.08843739 29291,6917.869000000002,95.437,540.8340000000002,538.634,0.0
52478.0,STARLINK-3825,PAYLOAD,2022-11-05 18:06:47,15.08840402,0.0001605,53.2182,135.625,70.3341,289.7824,0.00010351,1.36e-05,0.0,0 STARLINK-3825,1 52478U 22049AD  22309.75471248  .00001360  00000-0  10351-3 0  9990,2 52478  53.2182 135.6250 0001605  70.3341 289.7824 15.08840402 28249,6917.879,95.438,540.854,538.634,0.0
52478.0,STARLINK-3825,PAYLOAD,2022-11-05 22:52:57,15.08830157,0.0001564999999999,53.2181,134.7331,67.8708,292.2451,7.7265e-06,-1.65e-06,0.0,0 STARLINK-3825,1 52478U 22049AD  22309.95344260 -.00000165  00000-0  77265-5 0  9997,2 52478  53.2181 134.7331 0001565  67.8708 292.2451 15.08830157 28275,6917.91,95.438,540.8580000000002,538.693,0.0
52478.0,STARLINK-3825,PAYLOAD,2022-11-06 13:11:25,15.08830684,0.0001629,53.2182,132.0567,64.4268,295.6893,6.0813e-05,6.8e-06,0.0,0 STARLINK-3825,1 52478U 22049AD  22310.54960525  .00000680  00000-0  60813-4 0  9993,2 52478  53.2182 132.0567 0001629  64.4268 295.6893 15.08830684 29445,6917.909000000002,95.438,540.901,538.6469999999998,0.0
52478.0,STARLINK-3825,PAYLOAD,2022-11-07 05:05:16,15.08839795,0.0001633,53.2183,129.0833,64.6721,295.444,0.00011525,1.547e-05,0.0,0 STARLINK-3825,1 52478U 22049AD  22311.21200161  .00001547  00000-0  11525-3 0  9999,2 52478  53.2183 129.0833 0001633  64.6721 295.4440 15.08839795 28468,6917.880999999999,95.438,540.876,538.616,0.0
52478.0,STARLINK-3825,PAYLOAD,2022-11-07 13:02:12,15.08843567,0.0001618,53.2183,127.5961,66.5298,293.5864,0.00011818,1.593e-05,0.0,0 STARLINK-3825,1 52478U 22049AD  22311.54319956  .00001593  00000-0  11818-3 0  9994,2 52478  53.2183 127.5961 0001618  66.5298 293.5864 15.08843567 29592,6917.869000000002,95.437,540.854,538.615,0.0
52478.0,STARLINK-3825,PAYLOAD,2022-11-08 04:56:03,15.08846158,0.0001720999999999,53.2187,124.6227,66.5388,293.5785,0.00021939,3.206e-05,0.0,0 STARLINK-3825,1 52478U 22049AD  22312.20559394  .00003206  00000-0  21939-3 0  9998,2 52478  53.2187 124.6227 0001721  66.5388 293.5785 15.08846158 29696,6917.861999999999,95.437,540.9169999999998,538.536,0.0
52478.0,STARLINK-3825,PAYLOAD,2022-11-08 17:39:08,15.08846695,0.0001836,53.2177,122.2434,67.0579,293.0607,0.00014745,2.060000000000001e-05,0.0,0 STARLINK-3825,1 52478U 22049AD  22312.73551481  .00002060  00000-0  14745-3 0  9999,2 52478  53.2177 122.2434 0001836  67.0579 293.0607 15.08846695 28697,6917.86,95.437,540.995,538.455,0.0
52478.0,STARLINK-3825,PAYLOAD,2022-11-09 11:08:22,15.08849537,0.0001967,53.2178,118.9723,68.5509,291.5693,0.000144,2.005e-05,0.0,0 STARLINK-3825,1 52478U 22049AD  22313.46414975  .00002005  00000-0  14400-3 0  9993,2 52478  53.2178 118.9723 0001967  68.5509 291.5693 15.08849537 29883,6917.851,95.437,541.077,538.355,0.0
52478.0,STARLINK-3825,PAYLOAD,2022-11-09 17:29:55,15.0883303,0.0001612,53.2182,117.7831,62.3888,297.7267,-0.00017617,-3.09e-05,0.0,0 STARLINK-3825,1 52478U 22049AD  22313.72911622 -.00003090  00000-0 -17617-3 0  9993,2 52478  53.2182 117.7831 0001612  62.3888 297.7267 15.08833030 28845,6917.901999999999,95.438,540.882,538.6519999999998,0.0
52478.0,STARLINK-3825,PAYLOAD,2022-11-10 12:34:33,15.08838916,0.0002032,53.218,114.2154,65.12899999999999,294.9914,-0.00011617,-2.137e-05,0.0,0 STARLINK-3825,1 52478U 22049AD  22314.52399663 -.00002137  00000-0 -11617-3 0  9992,2 52478  53.2180 114.2154 0002032  65.1290 294.9914 15.08838916 30049,6917.884,95.438,541.154,538.3430000000002,0.0
52478.0,STARLINK-3825,PAYLOAD,2022-11-10 17:20:42,15.08836586,0.00015,53.218,113.3232,58.4782,301.6357,3.5445e-05,2.76e-06,0.0,0 STARLINK-3825,1 52478U 22049AD  22314.72271751  .00000276  00000-0  35445-4 0  9997,2 52478  53.2180 113.3232 0001500  58.4782 301.6357 15.08836586 28995,6917.891,95.438,540.794,538.7180000000002,0.0
52478.0,STARLINK-3825,PAYLOAD,2022-11-11 10:49:57,15.08832876,0.0001545,53.2182,110.0525,57.9895,302.1247,0.00022809,3.343e-05,0.0,0 STARLINK-3825,1 52478U 22049AD  22315.45136251  .00003343  00000-0  22809-3 0  9990,2 52478  53.2182 110.0525 0001545  57.9895 302.1247 15.08832876 30180,6917.901999999999,95.438,540.836,538.698,0.0
52478.0,STARLINK-3825,PAYLOAD,2022-11-11 20:22:16,15.08830763,0.0001536,53.2182,108.2681,57.0711,303.0429,0.00014875,2.08e-05,0.0,0 STARLINK-3825,1 52478U 22049AD  22315.84880631  .00002080  00000-0  14875-3 0  9992,2 52478  53.2182 108.2681 0001536  57.0711 303.0429 15.08830763 29161,6917.909000000002,95.438,540.836,538.711,0.0
